[Satellite]
VERSION=1.1
NAME=TRANSIT 16
NICKNAME=TRANSIT 16
TLE1=1 02807U 67048A   15054.84765793  .00000101  00000-0  14299-3 0  9996
TLE2=2 02807  89.6571 135.3950 0019210   4.1651  99.2301 13.50045531350909
